{
  "type": "FeatureCollection",
  "features": [
    {
      "type": "Feature",
      "properties": {
        "norad_id": 57400,
        "name": "TIANMU-1 08",
        "group": "weather",
        "lat": 59.47847217755699,
        "lon": -135.0713638250429,
        "alt_km": 471.4714096286343,
        "timestamp": "2025-12-08T15:42:49.421853+00:00",
        "meta_object_name": "TIANMU-1 08",
        "meta_object_id": "2023-101B",
        "meta_epoch": "2025-12-08T05:45:43.015680",
        "meta_mean_motion": 15.27956653,
        "meta_eccentricity": 0.00075552,
        "meta_inclination": 97.2866,
        "meta_ra_of_asc_node": 31.9881,
        "meta_arg_of_pericenter": 96.3564,
        "meta_mean_anomaly": 263.8537,
        "meta_ephemeris_type": 0,
        "meta_classification_type": "U",
        "meta_norad_cat_id": 57400,
        "meta_element_set_no": 999,
        "meta_rev_at_epoch": 13246,
        "meta_bstar": 0.0003569531,
        "meta_mean_motion_dot": 9.676e-05,
        "meta_mean_motion_ddot": 0,
        "tle_line1": "1 57400U 23101B   25342.24008120  .00009676  00000+0  35695-3 0  9994",
        "tle_line2": "2 57400  97.2866  31.9881 0007555  96.3564 263.8537 15.27956653132460"
      },
      "geometry": {
        "type": "Point",
        "coordinates": [
          -135.0713638250429,
          59.47847217755699
        ]
      }
    },
    {
      "type": "Feature",
      "properties": {
        "norad_id": 57401,
        "name": "TIANMU-1 09",
        "group": "weather",
        "lat": -11.963086595927855,
        "lon": -149.64339994576153,
        "alt_km": 486.93851505211023,
        "timestamp": "2025-12-08T15:42:49.421863+00:00",
        "meta_object_name": "TIANMU-1 09",
        "meta_object_id": "2023-101C",
        "meta_epoch": "2025-12-08T05:26:48.204384",
        "meta_mean_motion": 15.2798255,
        "meta_eccentricity": 0.00068162,
        "meta_inclination": 97.2822,
        "meta_ra_of_asc_node": 31.4912,
        "meta_arg_of_pericenter": 96.0111,
        "meta_mean_anomaly": 264.1906,
        "meta_ephemeris_type": 0,
        "meta_classification_type": "U",
        "meta_norad_cat_id": 57401,
        "meta_element_set_no": 999,
        "meta_rev_at_epoch": 13246,
        "meta_bstar": 0.00037435581,
        "meta_mean_motion_dot": 0.00010158,
        "meta_mean_motion_ddot": 0,
        "tle_line1": "1 57401U 23101C   25342.22694681  .00010158  00000+0  37436-3 0  9998",
        "tle_line2": "2 57401  97.2822  31.4912 0006816  96.0111 264.1906 15.27982550132466"
      },
      "geometry": {
        "type": "Point",
        "coordinates": [
          -149.64339994576153,
          -11.963086595927855
        ]
      }
    },
    {
      "type": "Feature",
      "properties": {
        "norad_id": 57402,
        "name": "TIANMU-1 10",
        "group": "weather",
        "lat": 3.668852788334705,
        "lon": 32.284193852061506,
        "alt_km": 484.56185531468964,
        "timestamp": "2025-12-08T15:42:49.421873+00:00",
        "meta_object_name": "TIANMU-1 10",
        "meta_object_id": "2023-101D",
        "meta_epoch": "2025-12-08T06:16:02.189280",
        "meta_mean_motion": 15.27973907,
        "meta_eccentricity": 0.00085688,
        "meta_inclination": 97.2902,
        "meta_ra_of_asc_node": 32.3695,
        "meta_arg_of_pericenter": 96.2429,
        "meta_mean_anomaly": 263.9787,
        "meta_ephemeris_type": 0,
        "meta_classification_type": "U",
        "meta_norad_cat_id": 57402,
        "meta_element_set_no": 999,
        "meta_rev_at_epoch": 13246,
        "meta_bstar": 0.00032514423,
        "meta_mean_motion_dot": 8.813e-05,
        "meta_mean_motion_ddot": 0,
        "tle_line1": "1 57402U 23101D   25342.26113645  .00008813  00000+0  32514-3 0  9996",
        "tle_line2": "2 57402  97.2902  32.3695 0008568  96.2429 263.9787 15.27973907132464"
      },
      "geometry": {
        "type": "Point",
        "coordinates": [
          32.284193852061506,
          3.668852788334705
        ]
      }
    },
    {
      "type": "Feature",
      "properties": {
        "norad_id": 57490,
        "name": "FENGYUN 3F",
        "group": "weather",
        "lat": 50.19933779512215,
        "lon": 40.412853705062844,
        "alt_km": 820.7259079150663,
        "timestamp": "2025-12-08T15:42:49.421882+00:00",
        "meta_object_name": "FENGYUN 3F",
        "meta_object_id": "2023-111A",
        "meta_epoch": "2025-12-08T07:01:05.619360",
        "meta_mean_motion": 14.19891931,
        "meta_eccentricity": 6.608e-05,
        "meta_inclination": 98.7091,
        "meta_ra_of_asc_node": 50.6575,
        "meta_arg_of_pericenter": 93.4152,
        "meta_mean_anomaly": 266.71,
        "meta_ephemeris_type": 0,
        "meta_classification_type": "U",
        "meta_norad_cat_id": 57490,
        "meta_element_set_no": 999,
        "meta_rev_at_epoch": 12177,
        "meta_bstar": 0.00011737367,
        "meta_mean_motion_dot": 2.05e-06,
        "meta_mean_motion_ddot": 0,
        "tle_line1": "1 57490U 23111A   25342.29242615  .00000205  00000+0  11737-3 0  9998",
        "tle_line2": "2 57490  98.7091  50.6575 0000660  93.4152 266.7100 14.19891931121771"
      },
      "geometry": {
        "type": "Point",
        "coordinates": [
          40.412853705062844,
          50.19933779512215
        ]
      }
    },
    {
      "type": "Feature",
      "properties": {
        "norad_id": 58584,
        "name": "ARKTIKA-M 2",
        "group": "weather",
        "lat": 59.19436534803969,
        "lon": -62.57328802646233,
        "alt_km": 34211.127598101375,
        "timestamp": "2025-12-08T15:42:49.421894+00:00",
        "meta_object_name": "ARKTIKA-M 2",
        "meta_object_id": "2023-198A",
        "meta_epoch": "2025-12-07T20:14:37.201632",
        "meta_mean_motion": 2.00604572,
        "meta_eccentricity": 0.68645726,
        "meta_inclination": 63.2245,
        "meta_ra_of_asc_node": 175.4245,
        "meta_arg_of_pericenter": 268.1228,
        "meta_mean_anomaly": 18.8285,
        "meta_ephemeris_type": 0,
        "meta_classification_type": "U",
        "meta_norad_cat_id": 58584,
        "meta_element_set_no": 999,
        "meta_rev_at_epoch": 1448,
        "meta_bstar": 0,
        "meta_mean_motion_dot": 1.69e-06,
        "meta_mean_motion_ddot": 0,
        "tle_line1": "1 58584U 23198A   25341.84348613  .00000169  00000+0  00000+0 0  9999",
        "tle_line2": "2 58584  63.2245 175.4245 6864572 268.1228  18.8285  2.00604572 14484"
      },
      "geometry": {
        "type": "Point",
        "coordinates": [
          -62.57328802646233,
          59.19436534803969
        ]
      }
    },
    {
      "type": "Feature",
      "properties": {
        "norad_id": 58645,
        "name": "TIANMU-1 11",
        "group": "weather",
        "lat": -53.26675883455253,
        "lon": 172.3749754548886,
        "alt_km": 499.5764153918244,
        "timestamp": "2025-12-08T15:42:49.421906+00:00",
        "meta_object_name": "TIANMU-1 11",
        "meta_object_id": "2023-205A",
        "meta_epoch": "2025-12-08T05:14:19.570848",
        "meta_mean_motion": 15.24515089,
        "meta_eccentricity": 0.00083239,
        "meta_inclination": 97.3605,
        "meta_ra_of_asc_node": 1.921,
        "meta_arg_of_pericenter": 328.59,
        "meta_mean_anomaly": 31.484,
        "meta_ephemeris_type": 0,
        "meta_classification_type": "U",
        "meta_norad_cat_id": 58645,
        "meta_element_set_no": 999,
        "meta_rev_at_epoch": 10840,
        "meta_bstar": 0.00034104409,
        "meta_mean_motion_dot": 8.327e-05,
        "meta_mean_motion_ddot": 0,
        "tle_line1": "1 58645U 23205A   25342.21828207  .00008327  00000+0  34104-3 0  9990",
        "tle_line2": "2 58645  97.3605   1.9210 0008323 328.5900  31.4840 15.24515089108409"
      },
      "geometry": {
        "type": "Point",
        "coordinates": [
          172.3749754548886,
          -53.26675883455253
        ]
      }
    },
    {
      "type": "Feature",
      "properties": {
        "norad_id": 58646,
        "name": "TIANMU-1 12",
        "group": "weather",
        "lat": 82.35043624181785,
        "lon": -72.06060187402443,
        "alt_km": 488.243737732113,
        "timestamp": "2025-12-08T15:42:49.421916+00:00",
        "meta_object_name": "TIANMU-1 12",
        "meta_object_id": "2023-205B",
        "meta_epoch": "2025-12-08T07:27:08.814816",
        "meta_mean_motion": 15.24397166,
        "meta_eccentricity": 0.00061244,
        "meta_inclination": 97.3593,
        "meta_ra_of_asc_node": 1.8185,
        "meta_arg_of_pericenter": 311.1885,
        "meta_mean_anomaly": 48.8824,
        "meta_ephemeris_type": 0,
        "meta_classification_type": "U",
        "meta_norad_cat_id": 58646,
        "meta_element_set_no": 999,
        "meta_rev_at_epoch": 10840,
        "meta_bstar": 0.00032650263,
        "meta_mean_motion_dot": 7.937e-05,
        "meta_mean_motion_ddot": 0,
        "tle_line1": "1 58646U 23205B   25342.31051869  .00007937  00000+0  32650-3 0  9994",
        "tle_line2": "2 58646  97.3593   1.8185 0006124 311.1885  48.8824 15.24397166108401"
      },
      "geometry": {
        "type": "Point",
        "coordinates": [
          -72.06060187402443,
          82.35043624181785
        ]
      }
    }
  ]
}